CCSDS_OMM_VERS = 2.0
CREATION_DATE  = 
ORIGINATOR     = 

OBJECT_NAME    = ALOS (DAICHI)
OBJECT_ID      = 2006-002A
CENTER_NAME    = EARTH
REF_FRAME      = TEME
TIME_SYSTEM    = UTC
MEAN_ELEMENT_THEORY = SGP/SGP4

EPOCH          = 2026-01-28T21:07:41.790720
MEAN_MOTION    = 14.69669864
ECCENTRICITY   = .00021633
INCLINATION    = 98.1149
RA_OF_ASC_NODE = 345.0571
ARG_OF_PERICENTER = 76.2932
MEAN_ANOMALY   = 283.8515

EPHEMERIS_TYPE = 0
CLASSIFICATION_TYPE = U
NORAD_CAT_ID   = 28931
ELEMENT_SET_NO = 999
REV_AT_EPOCH   = 6763
BSTAR          = .42170414E-3
MEAN_MOTION_DOT = .2461E-4
MEAN_MOTION_DDOT = 0

CCSDS_OMM_VERS = 2.0
CREATION_DATE  = 
ORIGINATOR     = 

OBJECT_NAME    = H-2A R/B
OBJECT_ID      = 2006-002B
CENTER_NAME    = EARTH
REF_FRAME      = TEME
TIME_SYSTEM    = UTC
MEAN_ELEMENT_THEORY = SGP/SGP4

EPOCH          = 2026-01-28T22:34:40.396512
MEAN_MOTION    = 15.15617714
ECCENTRICITY   = .00536326
INCLINATION    = 98.2339
RA_OF_ASC_NODE = 172.5917
ARG_OF_PERICENTER = 17.5893
MEAN_ANOMALY   = 342.7179

EPHEMERIS_TYPE = 0
CLASSIFICATION_TYPE = U
NORAD_CAT_ID   = 28932
ELEMENT_SET_NO = 999
REV_AT_EPOCH   = 8841
BSTAR          = .67002121E-3
MEAN_MOTION_DOT = .13135E-3
MEAN_MOTION_DDOT = 0

CCSDS_OMM_VERS = 2.0
CREATION_DATE  = 
ORIGINATOR     = 

OBJECT_NAME    = RESURS-DK 1
OBJECT_ID      = 2006-021A
CENTER_NAME    = EARTH
REF_FRAME      = TEME
TIME_SYSTEM    = UTC
MEAN_ELEMENT_THEORY = SGP/SGP4

EPOCH          = 2026-01-28T23:45:44.393760
MEAN_MOTION    = 15.12490978
ECCENTRICITY   = .00051511
INCLINATION    = 69.9347
RA_OF_ASC_NODE = 339.6952
ARG_OF_PERICENTER = 213.5690
MEAN_ANOMALY   = 146.5150

EPHEMERIS_TYPE = 0
CLASSIFICATION_TYPE = U
NORAD_CAT_ID   = 29228
ELEMENT_SET_NO = 999
REV_AT_EPOCH   = 8152
BSTAR          = .26626056E-3
MEAN_MOTION_DOT = .4541E-4
MEAN_MOTION_DDOT = 0

CCSDS_OMM_VERS = 2.0
CREATION_DATE  = 
ORIGINATOR     = 

OBJECT_NAME    = CZ-4B R/B
OBJECT_ID      = 2006-046C
CENTER_NAME    = EARTH
REF_FRAME      = TEME
TIME_SYSTEM    = UTC
MEAN_ELEMENT_THEORY = SGP/SGP4

EPOCH          = 2026-01-28T22:59:47.530464
MEAN_MOTION    = 15.16455391
ECCENTRICITY   = .0034729
INCLINATION    = 97.5674
RA_OF_ASC_NODE = 73.9706
ARG_OF_PERICENTER = 47.2514
MEAN_ANOMALY   = 313.1632

EPHEMERIS_TYPE = 0
CLASSIFICATION_TYPE = U
NORAD_CAT_ID   = 29507
ELEMENT_SET_NO = 999
REV_AT_EPOCH   = 5402
BSTAR          = .37620639E-3
MEAN_MOTION_DOT = .7365E-4
MEAN_MOTION_DDOT = 0

CCSDS_OMM_VERS = 2.0
CREATION_DATE  = 
ORIGINATOR     = 

OBJECT_NAME    = CZ-2C R/B
OBJECT_ID      = 2007-010B
CENTER_NAME    = EARTH
REF_FRAME      = TEME
TIME_SYSTEM    = UTC
MEAN_ELEMENT_THEORY = SGP/SGP4

EPOCH          = 2026-01-28T22:06:52.265664
MEAN_MOTION    = 14.20231891
ECCENTRICITY   = .00598169
INCLINATION    = 98.3970
RA_OF_ASC_NODE = 144.1982
ARG_OF_PERICENTER = 50.6203
MEAN_ANOMALY   = 310.0252

EPHEMERIS_TYPE = 0
CLASSIFICATION_TYPE = U
NORAD_CAT_ID   = 31114
ELEMENT_SET_NO = 999
REV_AT_EPOCH   = 97407
BSTAR          = .10732025E-3
MEAN_MOTION_DOT = .193E-5
MEAN_MOTION_DDOT = 0

CCSDS_OMM_VERS = 2.0
CREATION_DATE  = 
ORIGINATOR     = 

OBJECT_NAME    = COSMO-SKYMED 1
OBJECT_ID      = 2007-023A
CENTER_NAME    = EARTH
REF_FRAME      = TEME
TIME_SYSTEM    = UTC
MEAN_ELEMENT_THEORY = SGP/SGP4

EPOCH          = 2026-01-28T22:39:14.224032
MEAN_MOTION    = 14.96207079
ECCENTRICITY   = .00015406
INCLINATION    = 97.8857
RA_OF_ASC_NODE = 219.6683
ARG_OF_PERICENTER = 85.5260
MEAN_ANOMALY   = 274.6137

EPHEMERIS_TYPE = 0
CLASSIFICATION_TYPE = U
NORAD_CAT_ID   = 31598
ELEMENT_SET_NO = 999
REV_AT_EPOCH   = 896
BSTAR          = .60000287E-3
MEAN_MOTION_DOT = .6709E-4
MEAN_MOTION_DDOT = 0

CCSDS_OMM_VERS = 2.0
CREATION_DATE  = 
ORIGINATOR     = 

OBJECT_NAME    = COSMOS 2428
OBJECT_ID      = 2007-029A
CENTER_NAME    = EARTH
REF_FRAME      = TEME
TIME_SYSTEM    = UTC
MEAN_ELEMENT_THEORY = SGP/SGP4

EPOCH          = 2026-01-28T23:02:29.204736
MEAN_MOTION    = 14.12923798
ECCENTRICITY   = .000657
INCLINATION    = 70.9401
RA_OF_ASC_NODE = 286.7430
ARG_OF_PERICENTER = 321.5861
MEAN_ANOMALY   = 38.4791

EPHEMERIS_TYPE = 0
CLASSIFICATION_TYPE = U
NORAD_CAT_ID   = 31792
ELEMENT_SET_NO = 999
REV_AT_EPOCH   = 95848
BSTAR          = .25493E-3
MEAN_MOTION_DOT = .427E-5
MEAN_MOTION_DDOT = 0

CCSDS_OMM_VERS = 2.0
CREATION_DATE  = 
ORIGINATOR     = 

OBJECT_NAME    = SL-16 R/B
OBJECT_ID      = 2007-029B
CENTER_NAME    = EARTH
REF_FRAME      = TEME
TIME_SYSTEM    = UTC
MEAN_ELEMENT_THEORY = SGP/SGP4

EPOCH          = 2026-01-28T23:33:39.655872
MEAN_MOTION    = 14.14822902
ECCENTRICITY   = .00018491
INCLINATION    = 70.9730
RA_OF_ASC_NODE = 255.8537
ARG_OF_PERICENTER = 271.4822
MEAN_ANOMALY   = 202.8672

EPHEMERIS_TYPE = 0
CLASSIFICATION_TYPE = U
NORAD_CAT_ID   = 31793
ELEMENT_SET_NO = 999
REV_AT_EPOCH   = 95975
BSTAR          = .10232678E-3
MEAN_MOTION_DOT = .15E-5
MEAN_MOTION_DDOT = 0

CCSDS_OMM_VERS = 2.0
CREATION_DATE  = 
ORIGINATOR     = 

OBJECT_NAME    = KORONAS-FOTON
OBJECT_ID      = 2009-003A
CENTER_NAME    = EARTH
REF_FRAME      = TEME
TIME_SYSTEM    = UTC
MEAN_ELEMENT_THEORY = SGP/SGP4

EPOCH          = 2026-01-28T21:00:56.162592
MEAN_MOTION    = 15.42293196
ECCENTRICITY   = .00093774
INCLINATION    = 82.4325
RA_OF_ASC_NODE = 317.2300
ARG_OF_PERICENTER = 308.9795
MEAN_ANOMALY   = 51.0616

EPHEMERIS_TYPE = 0
CLASSIFICATION_TYPE = U
NORAD_CAT_ID   = 33504
ELEMENT_SET_NO = 999
REV_AT_EPOCH   = 93960
BSTAR          = .33831985E-3
MEAN_MOTION_DOT = .14623E-3
MEAN_MOTION_DDOT = 0

CCSDS_OMM_VERS = 2.0
CREATION_DATE  = 
ORIGINATOR     = 

OBJECT_NAME    = CZ-2C R/B
OBJECT_ID      = 2011-030B
CENTER_NAME    = EARTH
REF_FRAME      = TEME
TIME_SYSTEM    = UTC
MEAN_ELEMENT_THEORY = SGP/SGP4

EPOCH          = 2026-01-28T21:19:53.779296
MEAN_MOTION    = 14.81068477
ECCENTRICITY   = .00540041
INCLINATION    = 97.8472
RA_OF_ASC_NODE = 346.9734
ARG_OF_PERICENTER = 119.0407
MEAN_ANOMALY   = 303.4539

EPHEMERIS_TYPE = 0
CLASSIFICATION_TYPE = U
NORAD_CAT_ID   = 37731
ELEMENT_SET_NO = 999
REV_AT_EPOCH   = 78420
BSTAR          = .28568488E-3
MEAN_MOTION_DOT = .2219E-4
MEAN_MOTION_DDOT = 0

CCSDS_OMM_VERS = 2.0
CREATION_DATE  = 
ORIGINATOR     = 

OBJECT_NAME    = H-2A R/B
OBJECT_ID      = 2012-025E
CENTER_NAME    = EARTH
REF_FRAME      = TEME
TIME_SYSTEM    = UTC
MEAN_ELEMENT_THEORY = SGP/SGP4

EPOCH          = 2026-01-28T21:42:59.178240
MEAN_MOTION    = 14.94810334
ECCENTRICITY   = .00464231
INCLINATION    = 98.4653
RA_OF_ASC_NODE = 352.8001
ARG_OF_PERICENTER = 83.1601
MEAN_ANOMALY   = 277.4895

EPHEMERIS_TYPE = 0
CLASSIFICATION_TYPE = U
NORAD_CAT_ID   = 38341
ELEMENT_SET_NO = 999
REV_AT_EPOCH   = 74227
BSTAR          = .53499414E-3
MEAN_MOTION_DOT = .5881E-4
MEAN_MOTION_DDOT = 0

CCSDS_OMM_VERS = 2.0
CREATION_DATE  = 
ORIGINATOR     = 

OBJECT_NAME    = SHIJIAN-16 (SJ-16)
OBJECT_ID      = 2013-057A
CENTER_NAME    = EARTH
REF_FRAME      = TEME
TIME_SYSTEM    = UTC
MEAN_ELEMENT_THEORY = SGP/SGP4

EPOCH          = 2026-01-29T00:09:55.683072
MEAN_MOTION    = 14.92212298
ECCENTRICITY   = .00174479
INCLINATION    = 74.9720
RA_OF_ASC_NODE = 260.2073
ARG_OF_PERICENTER = 210.3829
MEAN_ANOMALY   = 149.6349

EPHEMERIS_TYPE = 0
CLASSIFICATION_TYPE = U
NORAD_CAT_ID   = 39358
ELEMENT_SET_NO = 999
REV_AT_EPOCH   = 66558
BSTAR          = .19283088E-3
MEAN_MOTION_DOT = .1942E-4
MEAN_MOTION_DDOT = 0

