ALOS (DAICHI)           
1 28931U 06002A   26028.88034480  .00002461  00000+0  42170-3 0  9993
2 28931  98.1149 345.0571 0002163  76.2932 283.8515 14.69669864 67636
H-2A R/B                
1 28932U 06002B   26028.94074533  .00013135  00000+0  67002-3 0  9995
2 28932  98.2339 172.5917 0053632  17.5893 342.7179 15.15617714 88416
RESURS-DK 1             
1 29228U 06021A   26028.99009715  .00004541  00000+0  26626-3 0  9998
2 29228  69.9347 339.6952 0005151 213.5690 146.5150 15.12490978 81522
CZ-4B R/B               
1 29507U 06046C   26028.95818901  .00007365  00000+0  37621-3 0  9990
2 29507  97.5674  73.9706 0034729  47.2514 313.1632 15.16455391 54023
CZ-2C R/B               
1 31114U 07010B   26028.92143826  .00000193  00000+0  10732-3 0  9999
2 31114  98.3970 144.1982 0059816  50.6203 310.0252 14.20231891974073
COSMO-SKYMED 1          
1 31598U 07023A   26028.94391463  .00006709  00000+0  60000-3 0  9995
2 31598  97.8857 219.6683 0001540  85.5260 274.6137 14.96207079  8961
COSMOS 2428             
1 31792U 07029A   26028.96006024  .00000427  00000+0  25493-3 0  9993
2 31792  70.9401 286.7430 0006570 321.5861  38.4791 14.12923798958481
SL-16 R/B               
1 31793U 07029B   26028.98170898  .00000150  00000+0  10233-3 0  9996
2 31793  70.9730 255.8537 0001849 271.4822 202.8672 14.14822902959759
KORONAS-FOTON           
1 33504U 09003A   26028.87565003  .00014623  00000+0  33832-3 0  9996
2 33504  82.4325 317.2300 0009377 308.9795  51.0616 15.42293196939602
CZ-2C R/B               
1 37731U 11030B   26028.88881689  .00002219  00000+0  28568-3 0  9995
2 37731  97.8472 346.9734 0054004 119.0407 303.4539 14.81068477784205
H-2A R/B                
1 38341U 12025E   26028.90485160  .00005881  00000+0  53499-3 0  9994
2 38341  98.4653 352.8001 0046423  83.1601 277.4895 14.94810334742274
SHIJIAN-16 (SJ-16)      
1 39358U 13057A   26029.00689448  .00001942  00000+0  19283-3 0  9993
2 39358  74.9720 260.2073 0017447 210.3829 149.6349 14.92212298665583
